[{"Zip":11575,"Latitude":40.679413,"Longitude":-73.58694,"year":2019,"eviction_zip":11575,"total":2},{"Zip":11109,"Latitude":40.651378,"Longitude":-73.870779,"year":2017,"eviction_zip":11109,"total":10},{"Zip":11109,"Latitude":40.651378,"Longitude":-73.870779,"year":2018,"eviction_zip":11109,"total":14},{"Zip":11109,"Latitude":40.651378,"Longitude":-73.870779,"year":2019,"eviction_zip":11109,"total":9},{"Zip":11229,"Latitude":40.599256,"Longitude":-73.94118,"year":2017,"eviction_zip":11229,"total":91},{"Zip":11229,"Latitude":40.599256,"Longitude":-73.94118,"year":2018,"eviction_zip":11229,"total":122},{"Zip":11229,"Latitude":40.599256,"Longitude":-73.94118,"year":2019,"eviction_zip":11229,"total":84},{"Zip":11207,"Latitude":40.670874,"Longitude":-73.89424,"year":2017,"eviction_zip":11207,"total":420},{"Zip":11207,"Latitude":40.670874,"Longitude":-73.89424,"year":2018,"eviction_zip":11207,"total":460},{"Zip":11207,"Latitude":40.670874,"Longitude":-73.89424,"year":2019,"eviction_zip":11207,"total":386},{"Zip":10034,"Latitude":40.867653,"Longitude":-73.92,"year":2017,"eviction_zip":10034,"total":154},{"Zip":10034,"Latitude":40.867653,"Longitude":-73.92,"year":2018,"eviction_zip":10034,"total":135},{"Zip":10034,"Latitude":40.867653,"Longitude":-73.92,"year":2019,"eviction_zip":10034,"total":141},{"Zip":10038,"Latitude":40.709677,"Longitude":-74.00365,"year":2017,"eviction_zip":10038,"total":26},{"Zip":10038,"Latitude":40.709677,"Longitude":-74.00365,"year":2018,"eviction_zip":10038,"total":24},{"Zip":10038,"Latitude":40.709677,"Longitude":-74.00365,"year":2019,"eviction_zip":10038,"total":19},{"Zip":11215,"Latitude":40.667508,"Longitude":-73.9856,"year":2017,"eviction_zip":11215,"total":23},{"Zip":11215,"Latitude":40.667508,"Longitude":-73.9856,"year":2018,"eviction_zip":11215,"total":37},{"Zip":11215,"Latitude":40.667508,"Longitude":-73.9856,"year":2019,"eviction_zip":11215,"total":36},{"Zip":11377,"Latitude":40.742869,"Longitude":-73.90377,"year":2017,"eviction_zip":11377,"total":104},{"Zip":11377,"Latitude":40.742869,"Longitude":-73.90377,"year":2018,"eviction_zip":11377,"total":124},{"Zip":11377,"Latitude":40.742869,"Longitude":-73.90377,"year":2019,"eviction_zip":11377,"total":111},{"Zip":11360,"Latitude":40.780386,"Longitude":-73.78005,"year":2017,"eviction_zip":11360,"total":16},{"Zip":11360,"Latitude":40.780386,"Longitude":-73.78005,"year":2018,"eviction_zip":11360,"total":19},{"Zip":11360,"Latitude":40.780386,"Longitude":-73.78005,"year":2019,"eviction_zip":11360,"total":17},{"Zip":10162,"Latitude":40.769334,"Longitude":-73.94893,"year":2018,"eviction_zip":10162,"total":1},{"Zip":10162,"Latitude":40.769334,"Longitude":-73.94893,"year":2019,"eviction_zip":10162,"total":1},{"Zip":11218,"Latitude":40.644552,"Longitude":-73.97595,"year":2017,"eviction_zip":11218,"total":89},{"Zip":11218,"Latitude":40.644552,"Longitude":-73.97595,"year":2018,"eviction_zip":11218,"total":85},{"Zip":11218,"Latitude":40.644552,"Longitude":-73.97595,"year":2019,"eviction_zip":11218,"total":50},{"Zip":11233,"Latitude":40.676938,"Longitude":-73.91858,"year":2017,"eviction_zip":11233,"total":383},{"Zip":11233,"Latitude":40.676938,"Longitude":-73.91858,"year":2018,"eviction_zip":11233,"total":389},{"Zip":11233,"Latitude":40.676938,"Longitude":-73.91858,"year":2019,"eviction_zip":11233,"total":351},{"Zip":11368,"Latitude":40.747106,"Longitude":-73.85838,"year":2017,"eviction_zip":11368,"total":262},{"Zip":11368,"Latitude":40.747106,"Longitude":-73.85838,"year":2018,"eviction_zip":11368,"total":255},{"Zip":11368,"Latitude":40.747106,"Longitude":-73.85838,"year":2019,"eviction_zip":11368,"total":213},{"Zip":10003,"Latitude":40.732509,"Longitude":-73.98935,"year":2017,"eviction_zip":10003,"total":55},{"Zip":10003,"Latitude":40.732509,"Longitude":-73.98935,"year":2018,"eviction_zip":10003,"total":48},{"Zip":10003,"Latitude":40.732509,"Longitude":-73.98935,"year":2019,"eviction_zip":10003,"total":44},{"Zip":11693,"Latitude":40.596959,"Longitude":-73.81978,"year":2017,"eviction_zip":11693,"total":34},{"Zip":11693,"Latitude":40.596959,"Longitude":-73.81978,"year":2018,"eviction_zip":11693,"total":37},{"Zip":11693,"Latitude":40.596959,"Longitude":-73.81978,"year":2019,"eviction_zip":11693,"total":31},{"Zip":11236,"Latitude":40.640527,"Longitude":-73.90362,"year":2017,"eviction_zip":11236,"total":266},{"Zip":11236,"Latitude":40.640527,"Longitude":-73.90362,"year":2018,"eviction_zip":11236,"total":289},{"Zip":11236,"Latitude":40.640527,"Longitude":-73.90362,"year":2019,"eviction_zip":11236,"total":254},{"Zip":11203,"Latitude":40.649059,"Longitude":-73.93304,"year":2017,"eviction_zip":11203,"total":341},{"Zip":11203,"Latitude":40.649059,"Longitude":-73.93304,"year":2018,"eviction_zip":11203,"total":326},{"Zip":11203,"Latitude":40.649059,"Longitude":-73.93304,"year":2019,"eviction_zip":11203,"total":290},{"Zip":11206,"Latitude":40.702348,"Longitude":-73.94288,"year":2017,"eviction_zip":11206,"total":145},{"Zip":11206,"Latitude":40.702348,"Longitude":-73.94288,"year":2018,"eviction_zip":11206,"total":141},{"Zip":11206,"Latitude":40.702348,"Longitude":-73.94288,"year":2019,"eviction_zip":11206,"total":146},{"Zip":11436,"Latitude":40.674146,"Longitude":-73.79687,"year":2017,"eviction_zip":11436,"total":46},{"Zip":11436,"Latitude":40.674146,"Longitude":-73.79687,"year":2018,"eviction_zip":11436,"total":60},{"Zip":11436,"Latitude":40.674146,"Longitude":-73.79687,"year":2019,"eviction_zip":11436,"total":59},{"Zip":11417,"Latitude":40.675534,"Longitude":-73.84476,"year":2017,"eviction_zip":11417,"total":43},{"Zip":11417,"Latitude":40.675534,"Longitude":-73.84476,"year":2018,"eviction_zip":11417,"total":53},{"Zip":11417,"Latitude":40.675534,"Longitude":-73.84476,"year":2019,"eviction_zip":11417,"total":78},{"Zip":11104,"Latitude":40.743796,"Longitude":-73.91949,"year":2017,"eviction_zip":11104,"total":43},{"Zip":11104,"Latitude":40.743796,"Longitude":-73.91949,"year":2018,"eviction_zip":11104,"total":43},{"Zip":11104,"Latitude":40.743796,"Longitude":-73.91949,"year":2019,"eviction_zip":11104,"total":47},{"Zip":10461,"Latitude":40.842917,"Longitude":-73.83819,"year":2017,"eviction_zip":10461,"total":140},{"Zip":10461,"Latitude":40.842917,"Longitude":-73.83819,"year":2018,"eviction_zip":10461,"total":138},{"Zip":10461,"Latitude":40.842917,"Longitude":-73.83819,"year":2019,"eviction_zip":10461,"total":122},{"Zip":11208,"Latitude":40.672666,"Longitude":-73.87248,"year":2017,"eviction_zip":11208,"total":436},{"Zip":11208,"Latitude":40.672666,"Longitude":-73.87248,"year":2018,"eviction_zip":11208,"total":485},{"Zip":11208,"Latitude":40.672666,"Longitude":-73.87248,"year":2019,"eviction_zip":11208,"total":379},{"Zip":11213,"Latitude":40.670937,"Longitude":-73.93459,"year":2017,"eviction_zip":11213,"total":311},{"Zip":11213,"Latitude":40.670937,"Longitude":-73.93459,"year":2018,"eviction_zip":11213,"total":287},{"Zip":11213,"Latitude":40.670937,"Longitude":-73.93459,"year":2019,"eviction_zip":11213,"total":254},{"Zip":11001,"Latitude":40.7232,"Longitude":-73.70475,"year":2017,"eviction_zip":11001,"total":1},{"Zip":11001,"Latitude":40.7232,"Longitude":-73.70475,"year":2018,"eviction_zip":11001,"total":1},{"Zip":11001,"Latitude":40.7232,"Longitude":-73.70475,"year":2019,"eviction_zip":11001,"total":4},{"Zip":10167,"Latitude":40.754862,"Longitude":-73.97495,"year":2018,"eviction_zip":10167,"total":1},{"Zip":11358,"Latitude":40.760522,"Longitude":-73.79612,"year":2017,"eviction_zip":11358,"total":24},{"Zip":11358,"Latitude":40.760522,"Longitude":-73.79612,"year":2018,"eviction_zip":11358,"total":34},{"Zip":11358,"Latitude":40.760522,"Longitude":-73.79612,"year":2019,"eviction_zip":11358,"total":40},{"Zip":11424,"Latitude":40.651378,"Longitude":-73.870779,"year":2019,"eviction_zip":11424,"total":3},{"Zip":10069,"Latitude":40.775477,"Longitude":-73.9905,"year":2017,"eviction_zip":10069,"total":8},{"Zip":10069,"Latitude":40.775477,"Longitude":-73.9905,"year":2018,"eviction_zip":10069,"total":1},{"Zip":10069,"Latitude":40.775477,"Longitude":-73.9905,"year":2019,"eviction_zip":10069,"total":3},{"Zip":11249,"Latitude":40.645099,"Longitude":-73.945032,"year":2017,"eviction_zip":11249,"total":28},{"Zip":11249,"Latitude":40.645099,"Longitude":-73.945032,"year":2018,"eviction_zip":11249,"total":28},{"Zip":11249,"Latitude":40.645099,"Longitude":-73.945032,"year":2019,"eviction_zip":11249,"total":40},{"Zip":11427,"Latitude":40.728235,"Longitude":-73.74782,"year":2017,"eviction_zip":11427,"total":44},{"Zip":11427,"Latitude":40.728235,"Longitude":-73.74782,"year":2018,"eviction_zip":11427,"total":33},{"Zip":11427,"Latitude":40.728235,"Longitude":-73.74782,"year":2019,"eviction_zip":11427,"total":25},{"Zip":10306,"Latitude":40.569394,"Longitude":-74.11785,"year":2017,"eviction_zip":10306,"total":60},{"Zip":10306,"Latitude":40.569394,"Longitude":-74.11785,"year":2018,"eviction_zip":10306,"total":70},{"Zip":10306,"Latitude":40.569394,"Longitude":-74.11785,"year":2019,"eviction_zip":10306,"total":46},{"Zip":10474,"Latitude":40.81321,"Longitude":-73.88755,"year":2017,"eviction_zip":10474,"total":83},{"Zip":10474,"Latitude":40.81321,"Longitude":-73.88755,"year":2018,"eviction_zip":10474,"total":99},{"Zip":10474,"Latitude":40.81321,"Longitude":-73.88755,"year":2019,"eviction_zip":10474,"total":92},{"Zip":10460,"Latitude":40.84095,"Longitude":-73.88036,"year":2017,"eviction_zip":10460,"total":477},{"Zip":10460,"Latitude":40.84095,"Longitude":-73.88036,"year":2018,"eviction_zip":10460,"total":460},{"Zip":10460,"Latitude":40.84095,"Longitude":-73.88036,"year":2019,"eviction_zip":10460,"total":373},{"Zip":10470,"Latitude":40.900629,"Longitude":-73.86072,"year":2017,"eviction_zip":10470,"total":89},{"Zip":10470,"Latitude":40.900629,"Longitude":-73.86072,"year":2018,"eviction_zip":10470,"total":75},{"Zip":10470,"Latitude":40.900629,"Longitude":-73.86072,"year":2019,"eviction_zip":10470,"total":79},{"Zip":10312,"Latitude":40.543117,"Longitude":-74.17628,"year":2017,"eviction_zip":10312,"total":31},{"Zip":10312,"Latitude":40.543117,"Longitude":-74.17628,"year":2018,"eviction_zip":10312,"total":17},{"Zip":10312,"Latitude":40.543117,"Longitude":-74.17628,"year":2019,"eviction_zip":10312,"total":34},{"Zip":10305,"Latitude":40.599021,"Longitude":-74.07503,"year":2017,"eviction_zip":10305,"total":60},{"Zip":10305,"Latitude":40.599021,"Longitude":-74.07503,"year":2018,"eviction_zip":10305,"total":42},{"Zip":10305,"Latitude":40.599021,"Longitude":-74.07503,"year":2019,"eviction_zip":10305,"total":42},{"Zip":11356,"Latitude":40.785462,"Longitude":-73.84366,"year":2017,"eviction_zip":11356,"total":59},{"Zip":11356,"Latitude":40.785462,"Longitude":-73.84366,"year":2018,"eviction_zip":11356,"total":27},{"Zip":11356,"Latitude":40.785462,"Longitude":-73.84366,"year":2019,"eviction_zip":11356,"total":37},{"Zip":10304,"Latitude":40.60787,"Longitude":-74.08991,"year":2017,"eviction_zip":10304,"total":134},{"Zip":10304,"Latitude":40.60787,"Longitude":-74.08991,"year":2018,"eviction_zip":10304,"total":156},{"Zip":10304,"Latitude":40.60787,"Longitude":-74.08991,"year":2019,"eviction_zip":10304,"total":132},{"Zip":11414,"Latitude":40.658188,"Longitude":-73.84321,"year":2017,"eviction_zip":11414,"total":29},{"Zip":11414,"Latitude":40.658188,"Longitude":-73.84321,"year":2018,"eviction_zip":11414,"total":29},{"Zip":11414,"Latitude":40.658188,"Longitude":-73.84321,"year":2019,"eviction_zip":11414,"total":39},{"Zip":11691,"Latitude":40.60002,"Longitude":-73.75962,"year":2017,"eviction_zip":11691,"total":291},{"Zip":11691,"Latitude":40.60002,"Longitude":-73.75962,"year":2018,"eviction_zip":11691,"total":270},{"Zip":11691,"Latitude":40.60002,"Longitude":-73.75962,"year":2019,"eviction_zip":11691,"total":259},{"Zip":10170,"Latitude":40.752859,"Longitude":-73.97608,"year":2017,"eviction_zip":10170,"total":1},{"Zip":10170,"Latitude":40.752859,"Longitude":-73.97608,"year":2018,"eviction_zip":10170,"total":1},{"Zip":10170,"Latitude":40.752859,"Longitude":-73.97608,"year":2019,"eviction_zip":10170,"total":2},{"Zip":11426,"Latitude":40.732239,"Longitude":-73.72108,"year":2017,"eviction_zip":11426,"total":15},{"Zip":11426,"Latitude":40.732239,"Longitude":-73.72108,"year":2018,"eviction_zip":11426,"total":20},{"Zip":11426,"Latitude":40.732239,"Longitude":-73.72108,"year":2019,"eviction_zip":11426,"total":8},{"Zip":10301,"Latitude":40.631775,"Longitude":-74.09432,"year":2017,"eviction_zip":10301,"total":128},{"Zip":10301,"Latitude":40.631775,"Longitude":-74.09432,"year":2018,"eviction_zip":10301,"total":128},{"Zip":10301,"Latitude":40.631775,"Longitude":-74.09432,"year":2019,"eviction_zip":10301,"total":104},{"Zip":10451,"Latitude":40.819729,"Longitude":-73.9223,"year":2017,"eviction_zip":10451,"total":281},{"Zip":10451,"Latitude":40.819729,"Longitude":-73.9223,"year":2018,"eviction_zip":10451,"total":322},{"Zip":10451,"Latitude":40.819729,"Longitude":-73.9223,"year":2019,"eviction_zip":10451,"total":263},{"Zip":11224,"Latitude":40.576589,"Longitude":-73.99172,"year":2017,"eviction_zip":11224,"total":111},{"Zip":11224,"Latitude":40.576589,"Longitude":-73.99172,"year":2018,"eviction_zip":11224,"total":101},{"Zip":11224,"Latitude":40.576589,"Longitude":-73.99172,"year":2019,"eviction_zip":11224,"total":112},{"Zip":11223,"Latitude":40.598142,"Longitude":-73.97229,"year":2017,"eviction_zip":11223,"total":94},{"Zip":11223,"Latitude":40.598142,"Longitude":-73.97229,"year":2018,"eviction_zip":11223,"total":110},{"Zip":11223,"Latitude":40.598142,"Longitude":-73.97229,"year":2019,"eviction_zip":11223,"total":100},{"Zip":11363,"Latitude":40.772636,"Longitude":-73.74644,"year":2017,"eviction_zip":11363,"total":4},{"Zip":11363,"Latitude":40.772636,"Longitude":-73.74644,"year":2018,"eviction_zip":11363,"total":8},{"Zip":11363,"Latitude":40.772636,"Longitude":-73.74644,"year":2019,"eviction_zip":11363,"total":4},{"Zip":10155,"Latitude":40.761104,"Longitude":-73.968036,"year":2017,"eviction_zip":10155,"total":1},{"Zip":11217,"Latitude":40.68209,"Longitude":-73.97783,"year":2017,"eviction_zip":11217,"total":47},{"Zip":11217,"Latitude":40.68209,"Longitude":-73.97783,"year":2018,"eviction_zip":11217,"total":55},{"Zip":11217,"Latitude":40.68209,"Longitude":-73.97783,"year":2019,"eviction_zip":11217,"total":53},{"Zip":11355,"Latitude":40.749463,"Longitude":-73.81941,"year":2017,"eviction_zip":11355,"total":97},{"Zip":11355,"Latitude":40.749463,"Longitude":-73.81941,"year":2018,"eviction_zip":11355,"total":122},{"Zip":11355,"Latitude":40.749463,"Longitude":-73.81941,"year":2019,"eviction_zip":11355,"total":97},{"Zip":10112,"Latitude":40.759291,"Longitude":-73.97979,"year":2017,"eviction_zip":10112,"total":1},{"Zip":10463,"Latitude":40.881086,"Longitude":-73.90749,"year":2017,"eviction_zip":10463,"total":211},{"Zip":10463,"Latitude":40.881086,"Longitude":-73.90749,"year":2018,"eviction_zip":10463,"total":205},{"Zip":10463,"Latitude":40.881086,"Longitude":-73.90749,"year":2019,"eviction_zip":10463,"total":192},{"Zip":11434,"Latitude":40.674888,"Longitude":-73.7727,"year":2017,"eviction_zip":11434,"total":169},{"Zip":11434,"Latitude":40.674888,"Longitude":-73.7727,"year":2018,"eviction_zip":11434,"total":227},{"Zip":11434,"Latitude":40.674888,"Longitude":-73.7727,"year":2019,"eviction_zip":11434,"total":175},{"Zip":11428,"Latitude":40.719981,"Longitude":-73.74127,"year":2017,"eviction_zip":11428,"total":45},{"Zip":11428,"Latitude":40.719981,"Longitude":-73.74127,"year":2018,"eviction_zip":11428,"total":29},{"Zip":11428,"Latitude":40.719981,"Longitude":-73.74127,"year":2019,"eviction_zip":11428,"total":29},{"Zip":10101,"Latitude":40.780751,"Longitude":-73.977182,"year":2017,"eviction_zip":10101,"total":1},{"Zip":11514,"Latitude":40.750132,"Longitude":-73.61328,"year":2019,"eviction_zip":11514,"total":1},{"Zip":10027,"Latitude":40.812665,"Longitude":-73.95499,"year":2017,"eviction_zip":10027,"total":143},{"Zip":10027,"Latitude":40.812665,"Longitude":-73.95499,"year":2018,"eviction_zip":10027,"total":130},{"Zip":10027,"Latitude":40.812665,"Longitude":-73.95499,"year":2019,"eviction_zip":10027,"total":100},{"Zip":10464,"Latitude":40.857017,"Longitude":-73.78903,"year":2017,"eviction_zip":10464,"total":12},{"Zip":10464,"Latitude":40.857017,"Longitude":-73.78903,"year":2018,"eviction_zip":10464,"total":10},{"Zip":10464,"Latitude":40.857017,"Longitude":-73.78903,"year":2019,"eviction_zip":10464,"total":5},{"Zip":11374,"Latitude":40.724945,"Longitude":-73.8609,"year":2017,"eviction_zip":11374,"total":77},{"Zip":11374,"Latitude":40.724945,"Longitude":-73.8609,"year":2018,"eviction_zip":11374,"total":73},{"Zip":11374,"Latitude":40.724945,"Longitude":-73.8609,"year":2019,"eviction_zip":11374,"total":45},{"Zip":10282,"Latitude":40.717179,"Longitude":-74.01433,"year":2017,"eviction_zip":10282,"total":3},{"Zip":10282,"Latitude":40.717179,"Longitude":-74.01433,"year":2018,"eviction_zip":10282,"total":3},{"Zip":10282,"Latitude":40.717179,"Longitude":-74.01433,"year":2019,"eviction_zip":10282,"total":2},{"Zip":10036,"Latitude":40.759511,"Longitude":-73.99019,"year":2017,"eviction_zip":10036,"total":122},{"Zip":10036,"Latitude":40.759511,"Longitude":-73.99019,"year":2018,"eviction_zip":10036,"total":111},{"Zip":10036,"Latitude":40.759511,"Longitude":-73.99019,"year":2019,"eviction_zip":10036,"total":113},{"Zip":11209,"Latitude":40.62327,"Longitude":-74.0295,"year":2017,"eviction_zip":11209,"total":121},{"Zip":11209,"Latitude":40.62327,"Longitude":-74.0295,"year":2018,"eviction_zip":11209,"total":124},{"Zip":11209,"Latitude":40.62327,"Longitude":-74.0295,"year":2019,"eviction_zip":11209,"total":94},{"Zip":11421,"Latitude":40.69087,"Longitude":-73.85828,"year":2017,"eviction_zip":11421,"total":60},{"Zip":11421,"Latitude":40.69087,"Longitude":-73.85828,"year":2018,"eviction_zip":11421,"total":62},{"Zip":11421,"Latitude":40.69087,"Longitude":-73.85828,"year":2019,"eviction_zip":11421,"total":71},{"Zip":10030,"Latitude":40.818151,"Longitude":-73.94351,"year":2017,"eviction_zip":10030,"total":134},{"Zip":10030,"Latitude":40.818151,"Longitude":-73.94351,"year":2018,"eviction_zip":10030,"total":142},{"Zip":10030,"Latitude":40.818151,"Longitude":-73.94351,"year":2019,"eviction_zip":10030,"total":123},{"Zip":10307,"Latitude":40.508274,"Longitude":-74.24387,"year":2017,"eviction_zip":10307,"total":9},{"Zip":10307,"Latitude":40.508274,"Longitude":-74.24387,"year":2018,"eviction_zip":10307,"total":18},{"Zip":10307,"Latitude":40.508274,"Longitude":-74.24387,"year":2019,"eviction_zip":10307,"total":14},{"Zip":11212,"Latitude":40.662191,"Longitude":-73.91328,"year":2017,"eviction_zip":11212,"total":500},{"Zip":11212,"Latitude":40.662191,"Longitude":-73.91328,"year":2018,"eviction_zip":11212,"total":412},{"Zip":11212,"Latitude":40.662191,"Longitude":-73.91328,"year":2019,"eviction_zip":11212,"total":388},{"Zip":11366,"Latitude":40.726137,"Longitude":-73.79502,"year":2017,"eviction_zip":11366,"total":10},{"Zip":11366,"Latitude":40.726137,"Longitude":-73.79502,"year":2018,"eviction_zip":11366,"total":6},{"Zip":11366,"Latitude":40.726137,"Longitude":-73.79502,"year":2019,"eviction_zip":11366,"total":14},{"Zip":11354,"Latitude":40.767969,"Longitude":-73.82496,"year":2017,"eviction_zip":11354,"total":81},{"Zip":11354,"Latitude":40.767969,"Longitude":-73.82496,"year":2018,"eviction_zip":11354,"total":138},{"Zip":11354,"Latitude":40.767969,"Longitude":-73.82496,"year":2019,"eviction_zip":11354,"total":111},{"Zip":10472,"Latitude":40.830409,"Longitude":-73.86845,"year":2017,"eviction_zip":10472,"total":345},{"Zip":10472,"Latitude":40.830409,"Longitude":-73.86845,"year":2018,"eviction_zip":10472,"total":336},{"Zip":10472,"Latitude":40.830409,"Longitude":-73.86845,"year":2019,"eviction_zip":10472,"total":277},{"Zip":10107,"Latitude":40.766429,"Longitude":-73.982728,"year":2017,"eviction_zip":10107,"total":1},{"Zip":11419,"Latitude":40.688688,"Longitude":-73.82216,"year":2017,"eviction_zip":11419,"total":87},{"Zip":11419,"Latitude":40.688688,"Longitude":-73.82216,"year":2018,"eviction_zip":11419,"total":65},{"Zip":11419,"Latitude":40.688688,"Longitude":-73.82216,"year":2019,"eviction_zip":11419,"total":70},{"Zip":11422,"Latitude":40.662538,"Longitude":-73.73514,"year":2017,"eviction_zip":11422,"total":78},{"Zip":11422,"Latitude":40.662538,"Longitude":-73.73514,"year":2018,"eviction_zip":11422,"total":86},{"Zip":11422,"Latitude":40.662538,"Longitude":-73.73514,"year":2019,"eviction_zip":11422,"total":72},{"Zip":10032,"Latitude":40.840686,"Longitude":-73.94154,"year":2017,"eviction_zip":10032,"total":184},{"Zip":10032,"Latitude":40.840686,"Longitude":-73.94154,"year":2018,"eviction_zip":10032,"total":181},{"Zip":10032,"Latitude":40.840686,"Longitude":-73.94154,"year":2019,"eviction_zip":10032,"total":143},{"Zip":11361,"Latitude":40.763177,"Longitude":-73.77392,"year":2017,"eviction_zip":11361,"total":26},{"Zip":11361,"Latitude":40.763177,"Longitude":-73.77392,"year":2018,"eviction_zip":11361,"total":21},{"Zip":11361,"Latitude":40.763177,"Longitude":-73.77392,"year":2019,"eviction_zip":11361,"total":18},{"Zip":11239,"Latitude":40.645848,"Longitude":-73.87919,"year":2017,"eviction_zip":11239,"total":89},{"Zip":11239,"Latitude":40.645848,"Longitude":-73.87919,"year":2018,"eviction_zip":11239,"total":43},{"Zip":11239,"Latitude":40.645848,"Longitude":-73.87919,"year":2019,"eviction_zip":11239,"total":58},{"Zip":11220,"Latitude":40.641436,"Longitude":-74.01574,"year":2017,"eviction_zip":11220,"total":97},{"Zip":11220,"Latitude":40.641436,"Longitude":-74.01574,"year":2018,"eviction_zip":11220,"total":99},{"Zip":11220,"Latitude":40.641436,"Longitude":-74.01574,"year":2019,"eviction_zip":11220,"total":90},{"Zip":10103,"Latitude":40.760915,"Longitude":-73.97785,"year":2018,"eviction_zip":10103,"total":1},{"Zip":10005,"Latitude":40.706019,"Longitude":-74.00858,"year":2017,"eviction_zip":10005,"total":16},{"Zip":10005,"Latitude":40.706019,"Longitude":-74.00858,"year":2018,"eviction_zip":10005,"total":14},{"Zip":10005,"Latitude":40.706019,"Longitude":-74.00858,"year":2019,"eviction_zip":10005,"total":17},{"Zip":11439,"Latitude":40.722008,"Longitude":-73.790822,"year":2017,"eviction_zip":11439,"total":2},{"Zip":10002,"Latitude":40.71704,"Longitude":-73.987,"year":2017,"eviction_zip":10002,"total":114},{"Zip":10002,"Latitude":40.71704,"Longitude":-73.987,"year":2018,"eviction_zip":10002,"total":110},{"Zip":10002,"Latitude":40.71704,"Longitude":-73.987,"year":2019,"eviction_zip":10002,"total":82},{"Zip":11221,"Latitude":40.691234,"Longitude":-73.92637,"year":2017,"eviction_zip":11221,"total":306},{"Zip":11221,"Latitude":40.691234,"Longitude":-73.92637,"year":2018,"eviction_zip":11221,"total":226},{"Zip":11221,"Latitude":40.691234,"Longitude":-73.92637,"year":2019,"eviction_zip":11221,"total":238},{"Zip":10033,"Latitude":40.848764,"Longitude":-73.93496,"year":2017,"eviction_zip":10033,"total":177},{"Zip":10033,"Latitude":40.848764,"Longitude":-73.93496,"year":2018,"eviction_zip":10033,"total":167},{"Zip":10033,"Latitude":40.848764,"Longitude":-73.93496,"year":2019,"eviction_zip":10033,"total":144},{"Zip":10019,"Latitude":40.765714,"Longitude":-73.9856,"year":2017,"eviction_zip":10019,"total":108},{"Zip":10019,"Latitude":40.765714,"Longitude":-73.9856,"year":2018,"eviction_zip":10019,"total":106},{"Zip":10019,"Latitude":40.765714,"Longitude":-73.9856,"year":2019,"eviction_zip":10019,"total":107},{"Zip":10459,"Latitude":40.825432,"Longitude":-73.89327,"year":2017,"eviction_zip":10459,"total":346},{"Zip":10459,"Latitude":40.825432,"Longitude":-73.89327,"year":2018,"eviction_zip":10459,"total":335},{"Zip":10459,"Latitude":40.825432,"Longitude":-73.89327,"year":2019,"eviction_zip":10459,"total":328},{"Zip":10018,"Latitude":40.755101,"Longitude":-73.99337,"year":2017,"eviction_zip":10018,"total":45},{"Zip":10018,"Latitude":40.755101,"Longitude":-73.99337,"year":2018,"eviction_zip":10018,"total":74},{"Zip":10018,"Latitude":40.755101,"Longitude":-73.99337,"year":2019,"eviction_zip":10018,"total":51},{"Zip":11228,"Latitude":40.617563,"Longitude":-74.01168,"year":2017,"eviction_zip":11228,"total":38},{"Zip":11228,"Latitude":40.617563,"Longitude":-74.01168,"year":2018,"eviction_zip":11228,"total":27},{"Zip":11228,"Latitude":40.617563,"Longitude":-74.01168,"year":2019,"eviction_zip":11228,"total":20},{"Zip":10457,"Latitude":40.846745,"Longitude":-73.89861,"year":2017,"eviction_zip":10457,"total":538},{"Zip":10457,"Latitude":40.846745,"Longitude":-73.89861,"year":2018,"eviction_zip":10457,"total":463},{"Zip":10457,"Latitude":40.846745,"Longitude":-73.89861,"year":2019,"eviction_zip":10457,"total":384},{"Zip":10016,"Latitude":40.74618,"Longitude":-73.97759,"year":2017,"eviction_zip":10016,"total":75},{"Zip":10016,"Latitude":40.74618,"Longitude":-73.97759,"year":2018,"eviction_zip":10016,"total":68},{"Zip":10016,"Latitude":40.74618,"Longitude":-73.97759,"year":2019,"eviction_zip":10016,"total":55},{"Zip":10456,"Latitude":40.829676,"Longitude":-73.90856,"year":2017,"eviction_zip":10456,"total":553},{"Zip":10456,"Latitude":40.829676,"Longitude":-73.90856,"year":2018,"eviction_zip":10456,"total":572},{"Zip":10456,"Latitude":40.829676,"Longitude":-73.90856,"year":2019,"eviction_zip":10456,"total":532},{"Zip":11230,"Latitude":40.622994,"Longitude":-73.96427,"year":2017,"eviction_zip":11230,"total":134},{"Zip":11230,"Latitude":40.622994,"Longitude":-73.96427,"year":2018,"eviction_zip":11230,"total":143},{"Zip":11230,"Latitude":40.622994,"Longitude":-73.96427,"year":2019,"eviction_zip":11230,"total":110},{"Zip":11106,"Latitude":40.762012,"Longitude":-73.93147,"year":2017,"eviction_zip":11106,"total":61},{"Zip":11106,"Latitude":40.762012,"Longitude":-73.93147,"year":2018,"eviction_zip":11106,"total":67},{"Zip":11106,"Latitude":40.762012,"Longitude":-73.93147,"year":2019,"eviction_zip":11106,"total":57},{"Zip":11225,"Latitude":40.662892,"Longitude":-73.95509,"year":2017,"eviction_zip":11225,"total":239},{"Zip":11225,"Latitude":40.662892,"Longitude":-73.95509,"year":2018,"eviction_zip":11225,"total":201},{"Zip":11225,"Latitude":40.662892,"Longitude":-73.95509,"year":2019,"eviction_zip":11225,"total":165},{"Zip":10023,"Latitude":40.776099,"Longitude":-73.98285,"year":2017,"eviction_zip":10023,"total":46},{"Zip":10023,"Latitude":40.776099,"Longitude":-73.98285,"year":2018,"eviction_zip":10023,"total":53},{"Zip":10023,"Latitude":40.776099,"Longitude":-73.98285,"year":2019,"eviction_zip":10023,"total":47},{"Zip":11101,"Latitude":40.745341,"Longitude":-73.93907,"year":2017,"eviction_zip":11101,"total":91},{"Zip":11101,"Latitude":40.745341,"Longitude":-73.93907,"year":2018,"eviction_zip":11101,"total":78},{"Zip":11101,"Latitude":40.745341,"Longitude":-73.93907,"year":2019,"eviction_zip":11101,"total":66},{"Zip":10035,"Latitude":40.802395,"Longitude":-73.93359,"year":2017,"eviction_zip":10035,"total":148},{"Zip":10035,"Latitude":40.802395,"Longitude":-73.93359,"year":2018,"eviction_zip":10035,"total":120},{"Zip":10035,"Latitude":40.802395,"Longitude":-73.93359,"year":2019,"eviction_zip":10035,"total":97},{"Zip":11429,"Latitude":40.708833,"Longitude":-73.73903,"year":2017,"eviction_zip":11429,"total":57},{"Zip":11429,"Latitude":40.708833,"Longitude":-73.73903,"year":2018,"eviction_zip":11429,"total":75},{"Zip":11429,"Latitude":40.708833,"Longitude":-73.73903,"year":2019,"eviction_zip":11429,"total":70},{"Zip":10467,"Latitude":40.872265,"Longitude":-73.86937,"year":2017,"eviction_zip":10467,"total":639},{"Zip":10467,"Latitude":40.872265,"Longitude":-73.86937,"year":2018,"eviction_zip":10467,"total":595},{"Zip":10467,"Latitude":40.872265,"Longitude":-73.86937,"year":2019,"eviction_zip":10467,"total":512},{"Zip":11231,"Latitude":40.6788,"Longitude":-74.00254,"year":2017,"eviction_zip":11231,"total":37},{"Zip":11231,"Latitude":40.6788,"Longitude":-74.00254,"year":2018,"eviction_zip":11231,"total":37},{"Zip":11231,"Latitude":40.6788,"Longitude":-74.00254,"year":2019,"eviction_zip":11231,"total":35},{"Zip":10013,"Latitude":40.720666,"Longitude":-74.00526,"year":2017,"eviction_zip":10013,"total":48},{"Zip":10013,"Latitude":40.720666,"Longitude":-74.00526,"year":2018,"eviction_zip":10013,"total":45},{"Zip":10013,"Latitude":40.720666,"Longitude":-74.00526,"year":2019,"eviction_zip":10013,"total":33},{"Zip":10152,"Latitude":40.758611,"Longitude":-73.97223,"year":2019,"eviction_zip":10152,"total":1},{"Zip":10031,"Latitude":40.826201,"Longitude":-73.94879,"year":2017,"eviction_zip":10031,"total":208},{"Zip":10031,"Latitude":40.826201,"Longitude":-73.94879,"year":2018,"eviction_zip":10031,"total":178},{"Zip":10031,"Latitude":40.826201,"Longitude":-73.94879,"year":2019,"eviction_zip":10031,"total":113},{"Zip":11367,"Latitude":40.728614,"Longitude":-73.82145,"year":2017,"eviction_zip":11367,"total":78},{"Zip":11367,"Latitude":40.728614,"Longitude":-73.82145,"year":2018,"eviction_zip":11367,"total":89},{"Zip":11367,"Latitude":40.728614,"Longitude":-73.82145,"year":2019,"eviction_zip":11367,"total":48},{"Zip":11211,"Latitude":40.71209,"Longitude":-73.95427,"year":2017,"eviction_zip":11211,"total":73},{"Zip":11211,"Latitude":40.71209,"Longitude":-73.95427,"year":2018,"eviction_zip":11211,"total":69},{"Zip":11211,"Latitude":40.71209,"Longitude":-73.95427,"year":2019,"eviction_zip":11211,"total":75},{"Zip":11238,"Latitude":40.680145,"Longitude":-73.96257,"year":2017,"eviction_zip":11238,"total":115},{"Zip":11238,"Latitude":40.680145,"Longitude":-73.96257,"year":2018,"eviction_zip":11238,"total":88},{"Zip":11238,"Latitude":40.680145,"Longitude":-73.96257,"year":2019,"eviction_zip":11238,"total":84},{"Zip":10040,"Latitude":40.858704,"Longitude":-73.92853,"year":2017,"eviction_zip":10040,"total":128},{"Zip":10040,"Latitude":40.858704,"Longitude":-73.92853,"year":2018,"eviction_zip":10040,"total":118},{"Zip":10040,"Latitude":40.858704,"Longitude":-73.92853,"year":2019,"eviction_zip":10040,"total":102},{"Zip":10017,"Latitude":40.752159,"Longitude":-73.97231,"year":2017,"eviction_zip":10017,"total":38},{"Zip":10017,"Latitude":40.752159,"Longitude":-73.97231,"year":2018,"eviction_zip":10017,"total":26},{"Zip":10017,"Latitude":40.752159,"Longitude":-73.97231,"year":2019,"eviction_zip":10017,"total":22},{"Zip":11222,"Latitude":40.726302,"Longitude":-73.94559,"year":2017,"eviction_zip":11222,"total":43},{"Zip":11222,"Latitude":40.726302,"Longitude":-73.94559,"year":2018,"eviction_zip":11222,"total":34},{"Zip":11222,"Latitude":40.726302,"Longitude":-73.94559,"year":2019,"eviction_zip":11222,"total":29},{"Zip":10466,"Latitude":40.89095,"Longitude":-73.84702,"year":2017,"eviction_zip":10466,"total":379},{"Zip":10466,"Latitude":40.89095,"Longitude":-73.84702,"year":2018,"eviction_zip":10466,"total":391},{"Zip":10466,"Latitude":40.89095,"Longitude":-73.84702,"year":2019,"eviction_zip":10466,"total":341},{"Zip":10123,"Latitude":40.751489,"Longitude":-73.990537,"year":2019,"eviction_zip":10123,"total":1},{"Zip":10310,"Latitude":40.63212,"Longitude":-74.11551,"year":2017,"eviction_zip":10310,"total":64},{"Zip":10310,"Latitude":40.63212,"Longitude":-74.11551,"year":2018,"eviction_zip":10310,"total":43},{"Zip":10310,"Latitude":40.63212,"Longitude":-74.11551,"year":2019,"eviction_zip":10310,"total":51},{"Zip":10168,"Latitude":40.751933,"Longitude":-73.976794,"year":2019,"eviction_zip":10168,"total":2},{"Zip":11219,"Latitude":40.632449,"Longitude":-73.99629,"year":2017,"eviction_zip":11219,"total":66},{"Zip":11219,"Latitude":40.632449,"Longitude":-73.99629,"year":2018,"eviction_zip":11219,"total":72},{"Zip":11219,"Latitude":40.632449,"Longitude":-73.99629,"year":2019,"eviction_zip":11219,"total":58},{"Zip":11433,"Latitude":40.696538,"Longitude":-73.78734,"year":2017,"eviction_zip":11433,"total":169},{"Zip":11433,"Latitude":40.696538,"Longitude":-73.78734,"year":2018,"eviction_zip":11433,"total":153},{"Zip":11433,"Latitude":40.696538,"Longitude":-73.78734,"year":2019,"eviction_zip":11433,"total":135},{"Zip":11385,"Latitude":40.703069,"Longitude":-73.89285,"year":2017,"eviction_zip":11385,"total":202},{"Zip":11385,"Latitude":40.703069,"Longitude":-73.89285,"year":2018,"eviction_zip":11385,"total":152},{"Zip":11385,"Latitude":40.703069,"Longitude":-73.89285,"year":2019,"eviction_zip":11385,"total":95},{"Zip":10475,"Latitude":40.878522,"Longitude":-73.82541,"year":2017,"eviction_zip":10475,"total":86},{"Zip":10475,"Latitude":40.878522,"Longitude":-73.82541,"year":2018,"eviction_zip":10475,"total":95},{"Zip":10475,"Latitude":40.878522,"Longitude":-73.82541,"year":2019,"eviction_zip":10475,"total":80},{"Zip":10176,"Latitude":40.75557,"Longitude":-73.978877,"year":2018,"eviction_zip":10176,"total":2},{"Zip":11202,"Latitude":40.645099,"Longitude":-73.945032,"year":2017,"eviction_zip":11202,"total":1},{"Zip":10118,"Latitude":40.748998,"Longitude":-73.986467,"year":2019,"eviction_zip":10118,"total":1},{"Zip":11375,"Latitude":40.720535,"Longitude":-73.84582,"year":2017,"eviction_zip":11375,"total":70},{"Zip":11375,"Latitude":40.720535,"Longitude":-73.84582,"year":2018,"eviction_zip":11375,"total":89},{"Zip":11375,"Latitude":40.720535,"Longitude":-73.84582,"year":2019,"eviction_zip":11375,"total":73},{"Zip":11237,"Latitude":40.703355,"Longitude":-73.91993,"year":2017,"eviction_zip":11237,"total":85},{"Zip":11237,"Latitude":40.703355,"Longitude":-73.91993,"year":2018,"eviction_zip":11237,"total":86},{"Zip":11237,"Latitude":40.703355,"Longitude":-73.91993,"year":2019,"eviction_zip":11237,"total":68},{"Zip":11411,"Latitude":40.693538,"Longitude":-73.73574,"year":2017,"eviction_zip":11411,"total":25},{"Zip":11411,"Latitude":40.693538,"Longitude":-73.73574,"year":2018,"eviction_zip":11411,"total":38},{"Zip":11411,"Latitude":40.693538,"Longitude":-73.73574,"year":2019,"eviction_zip":11411,"total":37},{"Zip":10462,"Latitude":40.842173,"Longitude":-73.85862,"year":2017,"eviction_zip":10462,"total":346},{"Zip":10462,"Latitude":40.842173,"Longitude":-73.85862,"year":2018,"eviction_zip":10462,"total":336},{"Zip":10462,"Latitude":40.842173,"Longitude":-73.85862,"year":2019,"eviction_zip":10462,"total":290},{"Zip":11105,"Latitude":40.774686,"Longitude":-73.90816,"year":2017,"eviction_zip":11105,"total":54},{"Zip":11105,"Latitude":40.774686,"Longitude":-73.90816,"year":2018,"eviction_zip":11105,"total":48},{"Zip":11105,"Latitude":40.774686,"Longitude":-73.90816,"year":2019,"eviction_zip":11105,"total":31},{"Zip":10020,"Latitude":40.758667,"Longitude":-73.98024,"year":2018,"eviction_zip":10020,"total":2},{"Zip":10020,"Latitude":40.758667,"Longitude":-73.98024,"year":2019,"eviction_zip":10020,"total":1},{"Zip":11753,"Latitude":40.786544,"Longitude":-73.53675,"year":2017,"eviction_zip":11753,"total":1},{"Zip":11232,"Latitude":40.655481,"Longitude":-74.00424,"year":2017,"eviction_zip":11232,"total":48},{"Zip":11232,"Latitude":40.655481,"Longitude":-74.00424,"year":2018,"eviction_zip":11232,"total":46},{"Zip":11232,"Latitude":40.655481,"Longitude":-74.00424,"year":2019,"eviction_zip":11232,"total":24},{"Zip":10469,"Latitude":40.868643,"Longitude":-73.84735,"year":2017,"eviction_zip":10469,"total":217},{"Zip":10469,"Latitude":40.868643,"Longitude":-73.84735,"year":2018,"eviction_zip":10469,"total":185},{"Zip":10469,"Latitude":40.868643,"Longitude":-73.84735,"year":2019,"eviction_zip":10469,"total":203},{"Zip":11362,"Latitude":40.759686,"Longitude":-73.73322,"year":2017,"eviction_zip":11362,"total":8},{"Zip":11362,"Latitude":40.759686,"Longitude":-73.73322,"year":2018,"eviction_zip":11362,"total":8},{"Zip":11362,"Latitude":40.759686,"Longitude":-73.73322,"year":2019,"eviction_zip":11362,"total":6},{"Zip":11204,"Latitude":40.618944,"Longitude":-73.98473,"year":2017,"eviction_zip":11204,"total":72},{"Zip":11204,"Latitude":40.618944,"Longitude":-73.98473,"year":2018,"eviction_zip":11204,"total":76},{"Zip":11204,"Latitude":40.618944,"Longitude":-73.98473,"year":2019,"eviction_zip":11204,"total":57},{"Zip":10280,"Latitude":40.707467,"Longitude":-74.0178,"year":2017,"eviction_zip":10280,"total":11},{"Zip":10280,"Latitude":40.707467,"Longitude":-74.0178,"year":2018,"eviction_zip":10280,"total":7},{"Zip":10280,"Latitude":40.707467,"Longitude":-74.0178,"year":2019,"eviction_zip":10280,"total":8},{"Zip":10022,"Latitude":40.759015,"Longitude":-73.96732,"year":2017,"eviction_zip":10022,"total":44},{"Zip":10022,"Latitude":40.759015,"Longitude":-73.96732,"year":2018,"eviction_zip":10022,"total":63},{"Zip":10022,"Latitude":40.759015,"Longitude":-73.96732,"year":2019,"eviction_zip":10022,"total":61},{"Zip":10025,"Latitude":40.798502,"Longitude":-73.96811,"year":2017,"eviction_zip":10025,"total":132},{"Zip":10025,"Latitude":40.798502,"Longitude":-73.96811,"year":2018,"eviction_zip":10025,"total":131},{"Zip":10025,"Latitude":40.798502,"Longitude":-73.96811,"year":2019,"eviction_zip":10025,"total":92},{"Zip":10128,"Latitude":40.781894,"Longitude":-73.95039,"year":2017,"eviction_zip":10128,"total":66},{"Zip":10128,"Latitude":40.781894,"Longitude":-73.95039,"year":2018,"eviction_zip":10128,"total":38},{"Zip":10128,"Latitude":40.781894,"Longitude":-73.95039,"year":2019,"eviction_zip":10128,"total":53},{"Zip":11226,"Latitude":40.645256,"Longitude":-73.95553,"year":2017,"eviction_zip":11226,"total":515},{"Zip":11226,"Latitude":40.645256,"Longitude":-73.95553,"year":2018,"eviction_zip":11226,"total":417},{"Zip":11226,"Latitude":40.645256,"Longitude":-73.95553,"year":2019,"eviction_zip":11226,"total":332},{"Zip":11359,"Latitude":40.79278,"Longitude":-73.776701,"year":2017,"eviction_zip":11359,"total":2},{"Zip":11365,"Latitude":40.738983,"Longitude":-73.79209,"year":2017,"eviction_zip":11365,"total":67},{"Zip":11365,"Latitude":40.738983,"Longitude":-73.79209,"year":2018,"eviction_zip":11365,"total":84},{"Zip":11365,"Latitude":40.738983,"Longitude":-73.79209,"year":2019,"eviction_zip":11365,"total":54},{"Zip":10177,"Latitude":40.755345,"Longitude":-73.97609,"year":2018,"eviction_zip":10177,"total":2},{"Zip":10007,"Latitude":40.714754,"Longitude":-74.00721,"year":2017,"eviction_zip":10007,"total":9},{"Zip":10007,"Latitude":40.714754,"Longitude":-74.00721,"year":2018,"eviction_zip":10007,"total":9},{"Zip":10007,"Latitude":40.714754,"Longitude":-74.00721,"year":2019,"eviction_zip":10007,"total":3},{"Zip":11364,"Latitude":40.746718,"Longitude":-73.75994,"year":2017,"eviction_zip":11364,"total":17},{"Zip":11364,"Latitude":40.746718,"Longitude":-73.75994,"year":2018,"eviction_zip":11364,"total":26},{"Zip":11364,"Latitude":40.746718,"Longitude":-73.75994,"year":2019,"eviction_zip":11364,"total":22},{"Zip":10037,"Latitude":40.813385,"Longitude":-73.93616,"year":2017,"eviction_zip":10037,"total":124},{"Zip":10037,"Latitude":40.813385,"Longitude":-73.93616,"year":2018,"eviction_zip":10037,"total":129},{"Zip":10037,"Latitude":40.813385,"Longitude":-73.93616,"year":2019,"eviction_zip":10037,"total":130},{"Zip":10026,"Latitude":40.802853,"Longitude":-73.95471,"year":2017,"eviction_zip":10026,"total":114},{"Zip":10026,"Latitude":40.802853,"Longitude":-73.95471,"year":2018,"eviction_zip":10026,"total":76},{"Zip":10026,"Latitude":40.802853,"Longitude":-73.95471,"year":2019,"eviction_zip":10026,"total":89},{"Zip":11692,"Latitude":40.592939,"Longitude":-73.79568,"year":2017,"eviction_zip":11692,"total":122},{"Zip":11692,"Latitude":40.592939,"Longitude":-73.79568,"year":2018,"eviction_zip":11692,"total":117},{"Zip":11692,"Latitude":40.592939,"Longitude":-73.79568,"year":2019,"eviction_zip":11692,"total":101},{"Zip":10009,"Latitude":40.727093,"Longitude":-73.97864,"year":2017,"eviction_zip":10009,"total":111},{"Zip":10009,"Latitude":40.727093,"Longitude":-73.97864,"year":2018,"eviction_zip":10009,"total":102},{"Zip":10009,"Latitude":40.727093,"Longitude":-73.97864,"year":2019,"eviction_zip":10009,"total":79},{"Zip":11235,"Latitude":40.583803,"Longitude":-73.95019,"year":2017,"eviction_zip":11235,"total":152},{"Zip":11235,"Latitude":40.583803,"Longitude":-73.95019,"year":2018,"eviction_zip":11235,"total":175},{"Zip":11235,"Latitude":40.583803,"Longitude":-73.95019,"year":2019,"eviction_zip":11235,"total":140},{"Zip":11242,"Latitude":40.645099,"Longitude":-73.945032,"year":2017,"eviction_zip":11242,"total":1},{"Zip":11242,"Latitude":40.645099,"Longitude":-73.945032,"year":2019,"eviction_zip":11242,"total":1},{"Zip":10021,"Latitude":40.76842,"Longitude":-73.96045,"year":2017,"eviction_zip":10021,"total":44},{"Zip":10021,"Latitude":40.76842,"Longitude":-73.96045,"year":2018,"eviction_zip":10021,"total":52},{"Zip":10021,"Latitude":40.76842,"Longitude":-73.96045,"year":2019,"eviction_zip":10021,"total":24},{"Zip":10303,"Latitude":40.629448,"Longitude":-74.16239,"year":2017,"eviction_zip":10303,"total":89},{"Zip":10303,"Latitude":40.629448,"Longitude":-74.16239,"year":2018,"eviction_zip":10303,"total":63},{"Zip":10303,"Latitude":40.629448,"Longitude":-74.16239,"year":2019,"eviction_zip":10303,"total":83},{"Zip":10302,"Latitude":40.631127,"Longitude":-74.13715,"year":2017,"eviction_zip":10302,"total":42},{"Zip":10302,"Latitude":40.631127,"Longitude":-74.13715,"year":2018,"eviction_zip":10302,"total":42},{"Zip":10302,"Latitude":40.631127,"Longitude":-74.13715,"year":2019,"eviction_zip":10302,"total":44},{"Zip":10473,"Latitude":40.818514,"Longitude":-73.85893,"year":2017,"eviction_zip":10473,"total":180},{"Zip":10473,"Latitude":40.818514,"Longitude":-73.85893,"year":2018,"eviction_zip":10473,"total":166},{"Zip":10473,"Latitude":40.818514,"Longitude":-73.85893,"year":2019,"eviction_zip":10473,"total":171},{"Zip":11423,"Latitude":40.714261,"Longitude":-73.76824,"year":2017,"eviction_zip":11423,"total":82},{"Zip":11423,"Latitude":40.714261,"Longitude":-73.76824,"year":2018,"eviction_zip":11423,"total":109},{"Zip":11423,"Latitude":40.714261,"Longitude":-73.76824,"year":2019,"eviction_zip":11423,"total":60},{"Zip":10006,"Latitude":40.707904,"Longitude":-74.01342,"year":2017,"eviction_zip":10006,"total":9},{"Zip":10006,"Latitude":40.707904,"Longitude":-74.01342,"year":2018,"eviction_zip":10006,"total":8},{"Zip":10006,"Latitude":40.707904,"Longitude":-74.01342,"year":2019,"eviction_zip":10006,"total":7},{"Zip":11373,"Latitude":40.736076,"Longitude":-73.87804,"year":2017,"eviction_zip":11373,"total":141},{"Zip":11373,"Latitude":40.736076,"Longitude":-73.87804,"year":2018,"eviction_zip":11373,"total":141},{"Zip":11373,"Latitude":40.736076,"Longitude":-73.87804,"year":2019,"eviction_zip":11373,"total":93},{"Zip":11103,"Latitude":40.762968,"Longitude":-73.91091,"year":2017,"eviction_zip":11103,"total":64},{"Zip":11103,"Latitude":40.762968,"Longitude":-73.91091,"year":2018,"eviction_zip":11103,"total":50},{"Zip":11103,"Latitude":40.762968,"Longitude":-73.91091,"year":2019,"eviction_zip":11103,"total":43},{"Zip":11418,"Latitude":40.698485,"Longitude":-73.83365,"year":2017,"eviction_zip":11418,"total":86},{"Zip":11418,"Latitude":40.698485,"Longitude":-73.83365,"year":2018,"eviction_zip":11418,"total":65},{"Zip":11418,"Latitude":40.698485,"Longitude":-73.83365,"year":2019,"eviction_zip":11418,"total":80},{"Zip":11210,"Latitude":40.627946,"Longitude":-73.94552,"year":2017,"eviction_zip":11210,"total":232},{"Zip":11210,"Latitude":40.627946,"Longitude":-73.94552,"year":2018,"eviction_zip":11210,"total":263},{"Zip":11210,"Latitude":40.627946,"Longitude":-73.94552,"year":2019,"eviction_zip":11210,"total":166},{"Zip":10012,"Latitude":40.72596,"Longitude":-73.99834,"year":2017,"eviction_zip":10012,"total":38},{"Zip":10012,"Latitude":40.72596,"Longitude":-73.99834,"year":2018,"eviction_zip":10012,"total":43},{"Zip":10012,"Latitude":40.72596,"Longitude":-73.99834,"year":2019,"eviction_zip":10012,"total":36},{"Zip":10308,"Latitude":40.551353,"Longitude":-74.15098,"year":2017,"eviction_zip":10308,"total":19},{"Zip":10308,"Latitude":40.551353,"Longitude":-74.15098,"year":2018,"eviction_zip":10308,"total":15},{"Zip":10308,"Latitude":40.551353,"Longitude":-74.15098,"year":2019,"eviction_zip":10308,"total":12},{"Zip":10039,"Latitude":40.826181,"Longitude":-73.9371,"year":2017,"eviction_zip":10039,"total":123},{"Zip":10039,"Latitude":40.826181,"Longitude":-73.9371,"year":2018,"eviction_zip":10039,"total":151},{"Zip":10039,"Latitude":40.826181,"Longitude":-73.9371,"year":2019,"eviction_zip":10039,"total":98},{"Zip":11372,"Latitude":40.750146,"Longitude":-73.88433,"year":2017,"eviction_zip":11372,"total":142},{"Zip":11372,"Latitude":40.750146,"Longitude":-73.88433,"year":2018,"eviction_zip":11372,"total":136},{"Zip":11372,"Latitude":40.750146,"Longitude":-73.88433,"year":2019,"eviction_zip":11372,"total":99},{"Zip":11205,"Latitude":40.694214,"Longitude":-73.96529,"year":2017,"eviction_zip":11205,"total":94},{"Zip":11205,"Latitude":40.694214,"Longitude":-73.96529,"year":2018,"eviction_zip":11205,"total":83},{"Zip":11205,"Latitude":40.694214,"Longitude":-73.96529,"year":2019,"eviction_zip":11205,"total":70},{"Zip":11379,"Latitude":40.716028,"Longitude":-73.87925,"year":2017,"eviction_zip":11379,"total":29},{"Zip":11379,"Latitude":40.716028,"Longitude":-73.87925,"year":2018,"eviction_zip":11379,"total":23},{"Zip":11379,"Latitude":40.716028,"Longitude":-73.87925,"year":2019,"eviction_zip":11379,"total":24},{"Zip":10314,"Latitude":40.606337,"Longitude":-74.14513,"year":2017,"eviction_zip":10314,"total":74},{"Zip":10314,"Latitude":40.606337,"Longitude":-74.14513,"year":2018,"eviction_zip":10314,"total":63},{"Zip":10314,"Latitude":40.606337,"Longitude":-74.14513,"year":2019,"eviction_zip":10314,"total":52},{"Zip":11004,"Latitude":40.742944,"Longitude":-73.70956,"year":2017,"eviction_zip":11004,"total":7},{"Zip":11004,"Latitude":40.742944,"Longitude":-73.70956,"year":2018,"eviction_zip":11004,"total":6},{"Zip":11004,"Latitude":40.742944,"Longitude":-73.70956,"year":2019,"eviction_zip":11004,"total":4},{"Zip":11214,"Latitude":40.598994,"Longitude":-73.99611,"year":2017,"eviction_zip":11214,"total":121},{"Zip":11214,"Latitude":40.598994,"Longitude":-73.99611,"year":2018,"eviction_zip":11214,"total":126},{"Zip":11214,"Latitude":40.598994,"Longitude":-73.99611,"year":2019,"eviction_zip":11214,"total":94},{"Zip":10001,"Latitude":40.750742,"Longitude":-73.99653,"year":2017,"eviction_zip":10001,"total":108},{"Zip":10001,"Latitude":40.750742,"Longitude":-73.99653,"year":2018,"eviction_zip":10001,"total":144},{"Zip":10001,"Latitude":40.750742,"Longitude":-73.99653,"year":2019,"eviction_zip":10001,"total":84},{"Zip":11216,"Latitude":40.680398,"Longitude":-73.94824,"year":2017,"eviction_zip":11216,"total":179},{"Zip":11216,"Latitude":40.680398,"Longitude":-73.94824,"year":2018,"eviction_zip":11216,"total":171},{"Zip":11216,"Latitude":40.680398,"Longitude":-73.94824,"year":2019,"eviction_zip":11216,"total":190},{"Zip":11369,"Latitude":40.762854,"Longitude":-73.87051,"year":2017,"eviction_zip":11369,"total":40},{"Zip":11369,"Latitude":40.762854,"Longitude":-73.87051,"year":2018,"eviction_zip":11369,"total":47},{"Zip":11369,"Latitude":40.762854,"Longitude":-73.87051,"year":2019,"eviction_zip":11369,"total":32},{"Zip":11201,"Latitude":40.695286,"Longitude":-73.98907,"year":2017,"eviction_zip":11201,"total":64},{"Zip":11201,"Latitude":40.695286,"Longitude":-73.98907,"year":2018,"eviction_zip":11201,"total":59},{"Zip":11201,"Latitude":40.695286,"Longitude":-73.98907,"year":2019,"eviction_zip":11201,"total":68},{"Zip":11416,"Latitude":40.683301,"Longitude":-73.8503,"year":2017,"eviction_zip":11416,"total":60},{"Zip":11416,"Latitude":40.683301,"Longitude":-73.8503,"year":2018,"eviction_zip":11416,"total":58},{"Zip":11416,"Latitude":40.683301,"Longitude":-73.8503,"year":2019,"eviction_zip":11416,"total":60},{"Zip":11413,"Latitude":40.670138,"Longitude":-73.75141,"year":2017,"eviction_zip":11413,"total":103},{"Zip":11413,"Latitude":40.670138,"Longitude":-73.75141,"year":2018,"eviction_zip":11413,"total":126},{"Zip":11413,"Latitude":40.670138,"Longitude":-73.75141,"year":2019,"eviction_zip":11413,"total":91},{"Zip":11240,"Latitude":40.645099,"Longitude":-73.945032,"year":2017,"eviction_zip":11240,"total":1},{"Zip":10452,"Latitude":40.838745,"Longitude":-73.92234,"year":2017,"eviction_zip":10452,"total":445},{"Zip":10452,"Latitude":40.838745,"Longitude":-73.92234,"year":2018,"eviction_zip":10452,"total":386},{"Zip":10452,"Latitude":40.838745,"Longitude":-73.92234,"year":2019,"eviction_zip":10452,"total":366},{"Zip":10471,"Latitude":40.900819,"Longitude":-73.90347,"year":2017,"eviction_zip":10471,"total":48},{"Zip":10471,"Latitude":40.900819,"Longitude":-73.90347,"year":2018,"eviction_zip":10471,"total":42},{"Zip":10471,"Latitude":40.900819,"Longitude":-73.90347,"year":2019,"eviction_zip":10471,"total":32},{"Zip":10281,"Latitude":40.714643,"Longitude":-74.014958,"year":2019,"eviction_zip":10281,"total":1},{"Zip":10014,"Latitude":40.734718,"Longitude":-74.00532,"year":2017,"eviction_zip":10014,"total":44},{"Zip":10014,"Latitude":40.734718,"Longitude":-74.00532,"year":2018,"eviction_zip":10014,"total":41},{"Zip":10014,"Latitude":40.734718,"Longitude":-74.00532,"year":2019,"eviction_zip":10014,"total":32},{"Zip":11040,"Latitude":40.742901,"Longitude":-73.67895,"year":2017,"eviction_zip":11040,"total":1},{"Zip":11040,"Latitude":40.742901,"Longitude":-73.67895,"year":2018,"eviction_zip":11040,"total":5},{"Zip":11040,"Latitude":40.742901,"Longitude":-73.67895,"year":2019,"eviction_zip":11040,"total":3},{"Zip":10309,"Latitude":40.529749,"Longitude":-74.21304,"year":2017,"eviction_zip":10309,"total":23},{"Zip":10309,"Latitude":40.529749,"Longitude":-74.21304,"year":2018,"eviction_zip":10309,"total":34},{"Zip":10309,"Latitude":40.529749,"Longitude":-74.21304,"year":2019,"eviction_zip":10309,"total":21},{"Zip":11370,"Latitude":40.763015,"Longitude":-73.89052,"year":2017,"eviction_zip":11370,"total":29},{"Zip":11370,"Latitude":40.763015,"Longitude":-73.89052,"year":2018,"eviction_zip":11370,"total":20},{"Zip":11370,"Latitude":40.763015,"Longitude":-73.89052,"year":2019,"eviction_zip":11370,"total":22},{"Zip":11357,"Latitude":40.784453,"Longitude":-73.80922,"year":2017,"eviction_zip":11357,"total":20},{"Zip":11357,"Latitude":40.784453,"Longitude":-73.80922,"year":2018,"eviction_zip":11357,"total":35},{"Zip":11357,"Latitude":40.784453,"Longitude":-73.80922,"year":2019,"eviction_zip":11357,"total":20},{"Zip":10028,"Latitude":40.776777,"Longitude":-73.9541,"year":2017,"eviction_zip":10028,"total":47},{"Zip":10028,"Latitude":40.776777,"Longitude":-73.9541,"year":2018,"eviction_zip":10028,"total":48},{"Zip":10028,"Latitude":40.776777,"Longitude":-73.9541,"year":2019,"eviction_zip":10028,"total":32},{"Zip":10454,"Latitude":40.805968,"Longitude":-73.91628,"year":2017,"eviction_zip":10454,"total":151},{"Zip":10454,"Latitude":40.805968,"Longitude":-73.91628,"year":2018,"eviction_zip":10454,"total":160},{"Zip":10454,"Latitude":40.805968,"Longitude":-73.91628,"year":2019,"eviction_zip":10454,"total":116},{"Zip":11435,"Latitude":40.700068,"Longitude":-73.80986,"year":2017,"eviction_zip":11435,"total":168},{"Zip":11435,"Latitude":40.700068,"Longitude":-73.80986,"year":2018,"eviction_zip":11435,"total":158},{"Zip":11435,"Latitude":40.700068,"Longitude":-73.80986,"year":2019,"eviction_zip":11435,"total":115},{"Zip":11432,"Latitude":40.714144,"Longitude":-73.79324,"year":2017,"eviction_zip":11432,"total":176},{"Zip":11432,"Latitude":40.714144,"Longitude":-73.79324,"year":2018,"eviction_zip":11432,"total":179},{"Zip":11432,"Latitude":40.714144,"Longitude":-73.79324,"year":2019,"eviction_zip":11432,"total":124},{"Zip":10024,"Latitude":40.786387,"Longitude":-73.97709,"year":2017,"eviction_zip":10024,"total":37},{"Zip":10024,"Latitude":40.786387,"Longitude":-73.97709,"year":2018,"eviction_zip":10024,"total":60},{"Zip":10024,"Latitude":40.786387,"Longitude":-73.97709,"year":2019,"eviction_zip":10024,"total":28},{"Zip":11430,"Latitude":40.650519,"Longitude":-73.79567,"year":2019,"eviction_zip":11430,"total":1},{"Zip":10458,"Latitude":40.864166,"Longitude":-73.88881,"year":2017,"eviction_zip":10458,"total":683},{"Zip":10458,"Latitude":40.864166,"Longitude":-73.88881,"year":2018,"eviction_zip":10458,"total":574},{"Zip":10458,"Latitude":40.864166,"Longitude":-73.88881,"year":2019,"eviction_zip":10458,"total":470},{"Zip":11234,"Latitude":40.618561,"Longitude":-73.9216,"year":2017,"eviction_zip":11234,"total":149},{"Zip":11234,"Latitude":40.618561,"Longitude":-73.9216,"year":2018,"eviction_zip":11234,"total":161},{"Zip":11234,"Latitude":40.618561,"Longitude":-73.9216,"year":2019,"eviction_zip":11234,"total":123},{"Zip":11412,"Latitude":40.697188,"Longitude":-73.75948,"year":2017,"eviction_zip":11412,"total":87},{"Zip":11412,"Latitude":40.697188,"Longitude":-73.75948,"year":2018,"eviction_zip":11412,"total":117},{"Zip":11412,"Latitude":40.697188,"Longitude":-73.75948,"year":2019,"eviction_zip":11412,"total":99},{"Zip":11694,"Latitude":40.57649,"Longitude":-73.84721,"year":2017,"eviction_zip":11694,"total":54},{"Zip":11694,"Latitude":40.57649,"Longitude":-73.84721,"year":2018,"eviction_zip":11694,"total":43},{"Zip":11694,"Latitude":40.57649,"Longitude":-73.84721,"year":2019,"eviction_zip":11694,"total":37},{"Zip":11102,"Latitude":40.771286,"Longitude":-73.92462,"year":2017,"eviction_zip":11102,"total":54},{"Zip":11102,"Latitude":40.771286,"Longitude":-73.92462,"year":2018,"eviction_zip":11102,"total":46},{"Zip":11102,"Latitude":40.771286,"Longitude":-73.92462,"year":2019,"eviction_zip":11102,"total":48},{"Zip":11024,"Latitude":40.812887,"Longitude":-73.74094,"year":2019,"eviction_zip":11024,"total":1},{"Zip":10011,"Latitude":40.741012,"Longitude":-74.00012,"year":2017,"eviction_zip":10011,"total":76},{"Zip":10011,"Latitude":40.741012,"Longitude":-74.00012,"year":2018,"eviction_zip":10011,"total":49},{"Zip":10011,"Latitude":40.741012,"Longitude":-74.00012,"year":2019,"eviction_zip":10011,"total":58},{"Zip":10468,"Latitude":40.867107,"Longitude":-73.89916,"year":2017,"eviction_zip":10468,"total":552},{"Zip":10468,"Latitude":40.867107,"Longitude":-73.89916,"year":2018,"eviction_zip":10468,"total":469},{"Zip":10468,"Latitude":40.867107,"Longitude":-73.89916,"year":2019,"eviction_zip":10468,"total":280},{"Zip":11378,"Latitude":40.724096,"Longitude":-73.90271,"year":2017,"eviction_zip":11378,"total":55},{"Zip":11378,"Latitude":40.724096,"Longitude":-73.90271,"year":2018,"eviction_zip":11378,"total":39},{"Zip":11378,"Latitude":40.724096,"Longitude":-73.90271,"year":2019,"eviction_zip":11378,"total":40},{"Zip":10453,"Latitude":40.853017,"Longitude":-73.91214,"year":2017,"eviction_zip":10453,"total":600},{"Zip":10453,"Latitude":40.853017,"Longitude":-73.91214,"year":2018,"eviction_zip":10453,"total":510},{"Zip":10453,"Latitude":40.853017,"Longitude":-73.91214,"year":2019,"eviction_zip":10453,"total":471},{"Zip":10029,"Latitude":40.791586,"Longitude":-73.94575,"year":2017,"eviction_zip":10029,"total":192},{"Zip":10029,"Latitude":40.791586,"Longitude":-73.94575,"year":2018,"eviction_zip":10029,"total":219},{"Zip":10029,"Latitude":40.791586,"Longitude":-73.94575,"year":2019,"eviction_zip":10029,"total":189},{"Zip":10044,"Latitude":40.762174,"Longitude":-73.94917,"year":2017,"eviction_zip":10044,"total":16},{"Zip":10044,"Latitude":40.762174,"Longitude":-73.94917,"year":2018,"eviction_zip":10044,"total":10},{"Zip":10044,"Latitude":40.762174,"Longitude":-73.94917,"year":2019,"eviction_zip":10044,"total":7},{"Zip":11415,"Latitude":40.706903,"Longitude":-73.82973,"year":2017,"eviction_zip":11415,"total":52},{"Zip":11415,"Latitude":40.706903,"Longitude":-73.82973,"year":2018,"eviction_zip":11415,"total":59},{"Zip":11415,"Latitude":40.706903,"Longitude":-73.82973,"year":2019,"eviction_zip":11415,"total":46},{"Zip":10465,"Latitude":40.825727,"Longitude":-73.81752,"year":2017,"eviction_zip":10465,"total":53},{"Zip":10465,"Latitude":40.825727,"Longitude":-73.81752,"year":2018,"eviction_zip":10465,"total":35},{"Zip":10465,"Latitude":40.825727,"Longitude":-73.81752,"year":2019,"eviction_zip":10465,"total":60},{"Zip":10010,"Latitude":40.739022,"Longitude":-73.98205,"year":2017,"eviction_zip":10010,"total":31},{"Zip":10010,"Latitude":40.739022,"Longitude":-73.98205,"year":2018,"eviction_zip":10010,"total":38},{"Zip":10010,"Latitude":40.739022,"Longitude":-73.98205,"year":2019,"eviction_zip":10010,"total":26},{"Zip":11420,"Latitude":40.673138,"Longitude":-73.81443,"year":2017,"eviction_zip":11420,"total":91},{"Zip":11420,"Latitude":40.673138,"Longitude":-73.81443,"year":2018,"eviction_zip":11420,"total":108},{"Zip":11420,"Latitude":40.673138,"Longitude":-73.81443,"year":2019,"eviction_zip":11420,"total":79},{"Zip":10455,"Latitude":40.815559,"Longitude":-73.90771,"year":2017,"eviction_zip":10455,"total":236},{"Zip":10455,"Latitude":40.815559,"Longitude":-73.90771,"year":2018,"eviction_zip":10455,"total":207},{"Zip":10455,"Latitude":40.815559,"Longitude":-73.90771,"year":2019,"eviction_zip":10455,"total":184}]